{
  "type": "FeatureCollection",
  "features": [
    {
      "type": "Feature",
      "properties": {
        "norad_id": 30153,
        "name": "FENGYUN 1C DEB",
        "group": "fengyun-1c-debris",
        "lat": -76.27463031379695,
        "lon": 25.263644252277203,
        "alt_km": 970.1723311438063,
        "timestamp": "2025-12-11T18:59:46.347596+00:00",
        "meta_object_name": "FENGYUN 1C DEB",
        "meta_object_id": "1999-025TJ",
        "meta_epoch": "2025-12-10T11:01:05.985120",
        "meta_mean_motion": 13.78759563,
        "meta_eccentricity": 0.02008249,
        "meta_inclination": 100.4668,
        "meta_ra_of_asc_node": 334.6074,
        "meta_arg_of_pericenter": 11.3974,
        "meta_mean_anomaly": 139.7419,
        "meta_ephemeris_type": 0,
        "meta_classification_type": "U",
        "meta_norad_cat_id": 30153,
        "meta_element_set_no": 999,
        "meta_rev_at_epoch": 94743,
        "meta_bstar": 0.0017988339,
        "meta_mean_motion_dot": 2.074e-05,
        "meta_mean_motion_ddot": 0,
        "tle_line1": "1 30153U 99025TJ  25344.45909705  .00002074  00000+0  17988-2 0  9991",
        "tle_line2": "2 30153 100.4668 334.6074 0200824  11.3974 139.7419 13.78759563947432"
      },
      "geometry": {
        "type": "Point",
        "coordinates": [
          25.263644252277203,
          -76.27463031379695
        ]
      }
    },
    {
      "type": "Feature",
      "properties": {
        "norad_id": 30154,
        "name": "FENGYUN 1C DEB",
        "group": "fengyun-1c-debris",
        "lat": 34.764517411539295,
        "lon": -146.4079550588759,
        "alt_km": 864.9011939794109,
        "timestamp": "2025-12-11T18:59:46.347607+00:00",
        "meta_object_name": "FENGYUN 1C DEB",
        "meta_object_id": "1999-025TK",
        "meta_epoch": "2025-12-10T01:02:34.410912",
        "meta_mean_motion": 13.85972701,
        "meta_eccentricity": 0.01828342,
        "meta_inclination": 98.45,
        "meta_ra_of_asc_node": 26.0913,
        "meta_arg_of_pericenter": 206.0498,
        "meta_mean_anomaly": 223.2376,
        "meta_ephemeris_type": 0,
        "meta_classification_type": "U",
        "meta_norad_cat_id": 30154,
        "meta_element_set_no": 999,
        "meta_rev_at_epoch": 94947,
        "meta_bstar": 0.0020426431,
        "meta_mean_motion_dot": 2.64e-05,
        "meta_mean_motion_ddot": 0,
        "tle_line1": "1 30154U 99025TK  25344.04345383  .00002640  00000+0  20426-2 0  9993",
        "tle_line2": "2 30154  98.4500  26.0913 0182834 206.0498 223.2376 13.85972701949478"
      },
      "geometry": {
        "type": "Point",
        "coordinates": [
          -146.4079550588759,
          34.764517411539295
        ]
      }
    },
    {
      "type": "Feature",
      "properties": {
        "norad_id": 30155,
        "name": "FENGYUN 1C DEB",
        "group": "fengyun-1c-debris",
        "lat": 48.138497212396864,
        "lon": 48.232144474622004,
        "alt_km": 896.9327966702567,
        "timestamp": "2025-12-11T18:59:46.347617+00:00",
        "meta_object_name": "FENGYUN 1C DEB",
        "meta_object_id": "1999-025TL",
        "meta_epoch": "2025-12-10T21:47:33.055008",
        "meta_mean_motion": 13.73790068,
        "meta_eccentricity": 0.0241802,
        "meta_inclination": 99.7513,
        "meta_ra_of_asc_node": 58.3952,
        "meta_arg_of_pericenter": 348.5854,
        "meta_mean_anomaly": 10.9868,
        "meta_ephemeris_type": 0,
        "meta_classification_type": "U",
        "meta_norad_cat_id": 30155,
        "meta_element_set_no": 999,
        "meta_rev_at_epoch": 93839,
        "meta_bstar": 0.0023466,
        "meta_mean_motion_dot": 2.664e-05,
        "meta_mean_motion_ddot": 0,
        "tle_line1": "1 30155U 99025TL  25344.90802147  .00002664  00000+0  23466-2 0  9998",
        "tle_line2": "2 30155  99.7513  58.3952 0241802 348.5854  10.9868 13.73790068938394"
      },
      "geometry": {
        "type": "Point",
        "coordinates": [
          48.232144474622004,
          48.138497212396864
        ]
      }
    },
    {
      "type": "Feature",
      "properties": {
        "norad_id": 30156,
        "name": "FENGYUN 1C DEB",
        "group": "fengyun-1c-debris",
        "lat": -78.59093476304851,
        "lon": 3.933317266677175,
        "alt_km": 824.8332766947569,
        "timestamp": "2025-12-11T18:59:46.347627+00:00",
        "meta_object_name": "FENGYUN 1C DEB",
        "meta_object_id": "1999-025TM",
        "meta_epoch": "2025-12-10T20:55:21.836928",
        "meta_mean_motion": 13.80802318,
        "meta_eccentricity": 0.019948,
        "meta_inclination": 98.9188,
        "meta_ra_of_asc_node": 311.9741,
        "meta_arg_of_pericenter": 267.9343,
        "meta_mean_anomaly": 119.3568,
        "meta_ephemeris_type": 0,
        "meta_classification_type": "U",
        "meta_norad_cat_id": 30156,
        "meta_element_set_no": 999,
        "meta_rev_at_epoch": 94665,
        "meta_bstar": 0.0021655,
        "meta_mean_motion_dot": 2.607e-05,
        "meta_mean_motion_ddot": 0,
        "tle_line1": "1 30156U 99025TM  25344.87178052  .00002607  00000+0  21655-2 0  9991",
        "tle_line2": "2 30156  98.9188 311.9741 0199480 267.9343 119.3568 13.80802318946658"
      },
      "geometry": {
        "type": "Point",
        "coordinates": [
          3.933317266677175,
          -78.59093476304851
        ]
      }
    },
    {
      "type": "Feature",
      "properties": {
        "norad_id": 30157,
        "name": "FENGYUN 1C DEB",
        "group": "fengyun-1c-debris",
        "lat": -24.671482613779695,
        "lon": 86.83928086403498,
        "alt_km": 767.2974813488772,
        "timestamp": "2025-12-11T18:59:46.347637+00:00",
        "meta_object_name": "FENGYUN 1C DEB",
        "meta_object_id": "1999-025TN",
        "meta_epoch": "2025-12-11T05:56:57.086016",
        "meta_mean_motion": 14.4506658,
        "meta_eccentricity": 0.00370611,
        "meta_inclination": 98.714,
        "meta_ra_of_asc_node": 82.2419,
        "meta_arg_of_pericenter": 197.3024,
        "meta_mean_anomaly": 191.0969,
        "meta_ephemeris_type": 0,
        "meta_classification_type": "U",
        "meta_norad_cat_id": 30157,
        "meta_element_set_no": 999,
        "meta_rev_at_epoch": 98051,
        "meta_bstar": 0.0044329564,
        "meta_mean_motion_dot": 0.00015607,
        "meta_mean_motion_ddot": 0,
        "tle_line1": "1 30157U 99025TN  25345.24788294  .00015607  00000+0  44330-2 0  9998",
        "tle_line2": "2 30157  98.7140  82.2419 0037061 197.3024 191.0969 14.45066580980513"
      },
      "geometry": {
        "type": "Point",
        "coordinates": [
          86.83928086403498,
          -24.671482613779695
        ]
      }
    },
    {
      "type": "Feature",
      "properties": {
        "norad_id": 30160,
        "name": "FENGYUN 1C DEB",
        "group": "fengyun-1c-debris",
        "lat": 11.189500102839444,
        "lon": -67.30172155629654,
        "alt_km": 1216.2902316674872,
        "timestamp": "2025-12-11T18:59:46.347648+00:00",
        "meta_object_name": "FENGYUN 1C DEB",
        "meta_object_id": "1999-025TR",
        "meta_epoch": "2025-12-11T02:59:14.351424",
        "meta_mean_motion": 13.42886222,
        "meta_eccentricity": 0.034269,
        "meta_inclination": 98.886,
        "meta_ra_of_asc_node": 293.8824,
        "meta_arg_of_pericenter": 131.892,
        "meta_mean_anomaly": 259.9911,
        "meta_ephemeris_type": 0,
        "meta_classification_type": "U",
        "meta_norad_cat_id": 30160,
        "meta_element_set_no": 999,
        "meta_rev_at_epoch": 92392,
        "meta_bstar": 0.0010601881,
        "meta_mean_motion_dot": 8.21e-06,
        "meta_mean_motion_ddot": 0,
        "tle_line1": "1 30160U 99025TR  25345.12447166  .00000821  00000+0  10602-2 0  9996",
        "tle_line2": "2 30160  98.8860 293.8824 0342690 131.8920 259.9911 13.42886222923924"
      },
      "geometry": {
        "type": "Point",
        "coordinates": [
          -67.30172155629654,
          11.189500102839444
        ]
      }
    },
    {
      "type": "Feature",
      "properties": {
        "norad_id": 30161,
        "name": "FENGYUN 1C DEB",
        "group": "fengyun-1c-debris",
        "lat": -79.1267600110434,
        "lon": 78.1241900571659,
        "alt_km": 837.5719266654651,
        "timestamp": "2025-12-11T18:59:46.347658+00:00",
        "meta_object_name": "FENGYUN 1C DEB",
        "meta_object_id": "1999-025TS",
        "meta_epoch": "2025-12-10T22:14:19.059072",
        "meta_mean_motion": 13.49711803,
        "meta_eccentricity": 0.0328367,
        "meta_inclination": 100.5056,
        "meta_ra_of_asc_node": 332.224,
        "meta_arg_of_pericenter": 262.2681,
        "meta_mean_anomaly": 124.0507,
        "meta_ephemeris_type": 0,
        "meta_classification_type": "U",
        "meta_norad_cat_id": 30161,
        "meta_element_set_no": 999,
        "meta_rev_at_epoch": 92535,
        "meta_bstar": 0.0026928,
        "meta_mean_motion_dot": 2.33e-05,
        "meta_mean_motion_ddot": 0,
        "tle_line1": "1 30161U 99025TS  25344.92660948  .00002330  00000+0  26928-2 0  9994",
        "tle_line2": "2 30161 100.5056 332.2240 0328367 262.2681 124.0507 13.49711803925352"
      },
      "geometry": {
        "type": "Point",
        "coordinates": [
          78.1241900571659,
          -79.1267600110434
        ]
      }
    }
  ]
}